[
  {
    "COMMENT": "GENERATED VIA SPACETRACK.ORG API",
    "ORIGINATOR": "18 SPCS",
    "NORAD_CAT_ID": "39086",
    "OBJECT_NAME": "SARAL",
    "OBJECT_TYPE": "PAYLOAD",
    "CLASSIFICATION_TYPE": "U",
    "INTLDES": "13009A",
    "EPOCH": "2023-04-04 14:29:01",
    "EPOCH_MICROSECONDS": "574016",
    "MEAN_MOTION": "14.32168289",
    "ECCENTRICITY": "0.0002697",
    "INCLINATION": "98.548",
    "RA_OF_ASC_NODE": "280.9627",
    "ARG_OF_PERICENTER": "124.5246",
    "MEAN_ANOMALY": "235.6193",
    "EPHEMERIS_TYPE": "0",
    "ELEMENT_SET_NO": "999",
    "REV_AT_EPOCH": "52815",
    "BSTAR": "0.00010609",
    "MEAN_MOTION_DOT": "0.00000242",
    "MEAN_MOTION_DDOT": "0",
    "FILE": "3879974",
    "TLE_LINE0": "0 SARAL",
    "TLE_LINE1": "1 39086U 13009A   23094.60349044  .00000242  00000-0  10609-3 0  9994",
    "TLE_LINE2": "2 39086  98.5480 280.9627 0002697 124.5246 235.6193 14.32168289528158",
    "OBJECT_ID": "2013-009A",
    "OBJECT_NUMBER": "39086",
    "SEMIMAJOR_AXIS": "7162.629",
    "PERIOD": "100.547",
    "APOGEE": "786.426",
    "PERIGEE": "782.562",
    "DECAYED": "0"
  },
  {
    "COMMENT": "GENERATED VIA SPACETRACK.ORG API",
    "ORIGINATOR": "18 SPCS",
    "NORAD_CAT_ID": "39086",
    "OBJECT_NAME": "SARAL",
    "OBJECT_TYPE": "PAYLOAD",
    "CLASSIFICATION_TYPE": "U",
    "INTLDES": "13009A",
    "EPOCH": "2023-04-04 21:11:26",
    "EPOCH_MICROSECONDS": "642400",
    "MEAN_MOTION": "14.32168424",
    "ECCENTRICITY": "0.0002706",
    "INCLINATION": "98.548",
    "RA_OF_ASC_NODE": "281.2381",
    "ARG_OF_PERICENTER": "123.962",
    "MEAN_ANOMALY": "236.1822",
    "EPHEMERIS_TYPE": "0",
    "ELEMENT_SET_NO": "999",
    "REV_AT_EPOCH": "52819",
    "BSTAR": "0.00010134",
    "MEAN_MOTION_DOT": "0.00000229",
    "MEAN_MOTION_DDOT": "0",
    "FILE": "3880211",
    "TLE_LINE0": "0 SARAL",
    "TLE_LINE1": "1 39086U 13009A   23094.88294725  .00000229  00000-0  10134-3 0  9997",
    "TLE_LINE2": "2 39086  98.5480 281.2381 0002706 123.9620 236.1822 14.32168424528199",
    "OBJECT_ID": "2013-009A",
    "OBJECT_NUMBER": "39086",
    "SEMIMAJOR_AXIS": "7162.629",
    "PERIOD": "100.547",
    "APOGEE": "786.432",
    "PERIGEE": "782.556",
    "DECAYED": "0"
  },
  {
    "COMMENT": "GENERATED VIA SPACETRACK.ORG API",
    "ORIGINATOR": "18 SPCS",
    "NORAD_CAT_ID": "39086",
    "OBJECT_NAME": "SARAL",
    "OBJECT_TYPE": "PAYLOAD",
    "CLASSIFICATION_TYPE": "U",
    "INTLDES": "13009A",
    "EPOCH": "2023-04-05 12:16:53",
    "EPOCH_MICROSECONDS": "32224",
    "MEAN_MOTION": "14.32168756",
    "ECCENTRICITY": "0.0002725",
    "INCLINATION": "98.548",
    "RA_OF_ASC_NODE": "281.8577",
    "ARG_OF_PERICENTER": "122.8314",
    "MEAN_ANOMALY": "237.3132",
    "EPHEMERIS_TYPE": "0",
    "ELEMENT_SET_NO": "999",
    "REV_AT_EPOCH": "52828",
    "BSTAR": "0.00009642",
    "MEAN_MOTION_DOT": "0.00000216",
    "MEAN_MOTION_DDOT": "0",
    "FILE": "3880644",
    "TLE_LINE0": "0 SARAL",
    "TLE_LINE1": "1 39086U 13009A   23095.51172491  .00000216  00000-0  96420-4 0  9992",
    "TLE_LINE2": "2 39086  98.5480 281.8577 0002725 122.8314 237.3132 14.32168756528286",
    "OBJECT_ID": "2013-009A",
    "OBJECT_NUMBER": "39086",
    "SEMIMAJOR_AXIS": "7162.628",
    "PERIOD": "100.547",
    "APOGEE": "786.445",
    "PERIGEE": "782.541",
    "DECAYED": "0"
  },
  {
    "COMMENT": "GENERATED VIA SPACETRACK.ORG API",
    "ORIGINATOR": "18 SPCS",
    "NORAD_CAT_ID": "39086",
    "OBJECT_NAME": "SARAL",
    "OBJECT_TYPE": "PAYLOAD",
    "CLASSIFICATION_TYPE": "U",
    "INTLDES": "13009A",
    "EPOCH": "2023-04-05 13:57:29",
    "EPOCH_MICROSECONDS": "298240",
    "MEAN_MOTION": "14.32168788",
    "ECCENTRICITY": "0.0002728",
    "INCLINATION": "98.548",
    "RA_OF_ASC_NODE": "281.9266",
    "ARG_OF_PERICENTER": "122.6975",
    "MEAN_ANOMALY": "237.4472",
    "EPHEMERIS_TYPE": "0",
    "ELEMENT_SET_NO": "999",
    "REV_AT_EPOCH": "52829",
    "BSTAR": "0.000095491",
    "MEAN_MOTION_DOT": "0.00000213",
    "MEAN_MOTION_DDOT": "0",
    "FILE": "3880853",
    "TLE_LINE0": "0 SARAL",
    "TLE_LINE1": "1 39086U 13009A   23095.58158910  .00000213  00000-0  95491-4 0  9993",
    "TLE_LINE2": "2 39086  98.5480 281.9266 0002728 122.6975 237.4472 14.32168788528290",
    "OBJECT_ID": "2013-009A",
    "OBJECT_NUMBER": "39086",
    "SEMIMAJOR_AXIS": "7162.628",
    "PERIOD": "100.547",
    "APOGEE": "786.447",
    "PERIGEE": "782.539",
    "DECAYED": "0"
  },
  {
    "COMMENT": "GENERATED VIA SPACETRACK.ORG API",
    "ORIGINATOR": "18 SPCS",
    "NORAD_CAT_ID": "39086",
    "OBJECT_NAME": "SARAL",
    "OBJECT_TYPE": "PAYLOAD",
    "CLASSIFICATION_TYPE": "U",
    "INTLDES": "13009A",
    "EPOCH": "2023-04-05 20:39:54",
    "EPOCH_MICROSECONDS": "357120",
    "MEAN_MOTION": "14.32168932",
    "ECCENTRICITY": "0.0002737",
    "INCLINATION": "98.548",
    "RA_OF_ASC_NODE": "282.202",
    "ARG_OF_PERICENTER": "122.0913",
    "MEAN_ANOMALY": "238.0536",
    "EPHEMERIS_TYPE": "0",
    "ELEMENT_SET_NO": "999",
    "REV_AT_EPOCH": "52833",
    "BSTAR": "0.000093443",
    "MEAN_MOTION_DOT": "0.00000208",
    "MEAN_MOTION_DDOT": "0",
    "FILE": "3881153",
    "TLE_LINE0": "0 SARAL",
    "TLE_LINE1": "1 39086U 13009A   23095.86104580  .00000208  00000-0  93443-4 0  9997",
    "TLE_LINE2": "2 39086  98.5480 282.2020 0002737 122.0913 238.0536 14.32168932528332",
    "OBJECT_ID": "2013-009A",
    "OBJECT_NUMBER": "39086",
    "SEMIMAJOR_AXIS": "7162.627",
    "PERIOD": "100.547",
    "APOGEE": "786.453",
    "PERIGEE": "782.532",
    "DECAYED": "0"
  },
  {
    "COMMENT": "GENERATED VIA SPACETRACK.ORG API",
    "ORIGINATOR": "18 SPCS",
    "NORAD_CAT_ID": "39086",
    "OBJECT_NAME": "SARAL",
    "OBJECT_TYPE": "PAYLOAD",
    "CLASSIFICATION_TYPE": "U",
    "INTLDES": "13009A",
    "EPOCH": "2023-04-06 13:25:56",
    "EPOCH_MICROSECONDS": "996544",
    "MEAN_MOTION": "14.32169236",
    "ECCENTRICITY": "0.000276",
    "INCLINATION": "98.548",
    "RA_OF_ASC_NODE": "282.8905",
    "ARG_OF_PERICENTER": "120.8257",
    "MEAN_ANOMALY": "239.3198",
    "EPHEMERIS_TYPE": "0",
    "ELEMENT_SET_NO": "999",
    "REV_AT_EPOCH": "52843",
    "BSTAR": "0.000087446",
    "MEAN_MOTION_DOT": "0.00000192",
    "MEAN_MOTION_DDOT": "0",
    "FILE": "3881771",
    "TLE_LINE0": "0 SARAL",
    "TLE_LINE1": "1 39086U 13009A   23096.55968746  .00000192  00000-0  87446-4 0  9994",
    "TLE_LINE2": "2 39086  98.5480 282.8905 0002760 120.8257 239.3198 14.32169236528430",
    "OBJECT_ID": "2013-009A",
    "OBJECT_NUMBER": "39086",
    "SEMIMAJOR_AXIS": "7162.626",
    "PERIOD": "100.547",
    "APOGEE": "786.468",
    "PERIGEE": "782.514",
    "DECAYED": "0"
  },
  {
    "COMMENT": "GENERATED VIA SPACETRACK.ORG API",
    "ORIGINATOR": "18 SPCS",
    "NORAD_CAT_ID": "39086",
    "OBJECT_NAME": "SARAL",
    "OBJECT_TYPE": "PAYLOAD",
    "CLASSIFICATION_TYPE": "U",
    "INTLDES": "13009A",
    "EPOCH": "2023-04-06 18:27:45",
    "EPOCH_MICROSECONDS": "785088",
    "MEAN_MOTION": "14.32169348",
    "ECCENTRICITY": "0.000277",
    "INCLINATION": "98.548",
    "RA_OF_ASC_NODE": "283.0971",
    "ARG_OF_PERICENTER": "120.4123",
    "MEAN_ANOMALY": "239.7335",
    "EPHEMERIS_TYPE": "0",
    "ELEMENT_SET_NO": "999",
    "REV_AT_EPOCH": "52846",
    "BSTAR": "0.000087888",
    "MEAN_MOTION_DOT": "0.00000193",
    "MEAN_MOTION_DDOT": "0",
    "FILE": "3881809",
    "TLE_LINE0": "0 SARAL",
    "TLE_LINE1": "1 39086U 13009A   23096.76927992  .00000193  00000-0  87888-4 0  9996",
    "TLE_LINE2": "2 39086  98.5480 283.0971 0002770 120.4123 239.7335 14.32169348528469",
    "OBJECT_ID": "2013-009A",
    "OBJECT_NUMBER": "39086",
    "SEMIMAJOR_AXIS": "7162.626",
    "PERIOD": "100.547",
    "APOGEE": "786.475",
    "PERIGEE": "782.507",
    "DECAYED": "0"
  },
  {
    "COMMENT": "GENERATED VIA SPACETRACK.ORG API",
    "ORIGINATOR": "18 SPCS",
    "NORAD_CAT_ID": "39086",
    "OBJECT_NAME": "SARAL",
    "OBJECT_TYPE": "PAYLOAD",
    "CLASSIFICATION_TYPE": "U",
    "INTLDES": "13009A",
    "EPOCH": "2023-04-06 21:48:58",
    "EPOCH_MICROSECONDS": "307616",
    "MEAN_MOTION": "14.32169452",
    "ECCENTRICITY": "0.0002772",
    "INCLINATION": "98.548",
    "RA_OF_ASC_NODE": "283.2348",
    "ARG_OF_PERICENTER": "120.1223",
    "MEAN_ANOMALY": "240.0236",
    "EPHEMERIS_TYPE": "0",
    "ELEMENT_SET_NO": "999",
    "REV_AT_EPOCH": "52848",
    "BSTAR": "0.000088399",
    "MEAN_MOTION_DOT": "0.00000194",
    "MEAN_MOTION_DDOT": "0",
    "FILE": "3882049",
    "TLE_LINE0": "0 SARAL",
    "TLE_LINE1": "1 39086U 13009A   23096.90900819  .00000194  00000-0  88399-4 0  9990",
    "TLE_LINE2": "2 39086  98.5480 283.2348 0002772 120.1223 240.0236 14.32169452528482",
    "OBJECT_ID": "2013-009A",
    "OBJECT_NUMBER": "39086",
    "SEMIMAJOR_AXIS": "7162.625",
    "PERIOD": "100.547",
    "APOGEE": "786.476",
    "PERIGEE": "782.505",
    "DECAYED": "0"
  },
  {
    "COMMENT": "GENERATED VIA SPACETRACK.ORG API",
    "ORIGINATOR": "18 SPCS",
    "NORAD_CAT_ID": "39086",
    "OBJECT_NAME": "SARAL",
    "OBJECT_TYPE": "PAYLOAD",
    "CLASSIFICATION_TYPE": "U",
    "INTLDES": "13009A",
    "EPOCH": "2023-04-07 12:54:24",
    "EPOCH_MICROSECONDS": "660288",
    "MEAN_MOTION": "14.32169828",
    "ECCENTRICITY": "0.0002791",
    "INCLINATION": "98.548",
    "RA_OF_ASC_NODE": "283.8544",
    "ARG_OF_PERICENTER": "119.0746",
    "MEAN_ANOMALY": "241.0717",
    "EPHEMERIS_TYPE": "0",
    "ELEMENT_SET_NO": "999",
    "REV_AT_EPOCH": "52857",
    "BSTAR": "0.000089238",
    "MEAN_MOTION_DOT": "0.00000197",
    "MEAN_MOTION_DDOT": "0",
    "FILE": "3882626",
    "TLE_LINE0": "0 SARAL",
    "TLE_LINE1": "1 39086U 13009A   23097.53778542  .00000197  00000-0  89238-4 0  9992",
    "TLE_LINE2": "2 39086  98.5480 283.8544 0002791 119.0746 241.0717 14.32169828528576",
    "OBJECT_ID": "2013-009A",
    "OBJECT_NUMBER": "39086",
    "SEMIMAJOR_AXIS": "7162.624",
    "PERIOD": "100.547",
    "APOGEE": "786.488",
    "PERIGEE": "782.490",
    "DECAYED": "0"
  }
]